NORAD_CAT_ID,OBJECT_NAME,OBJECT_TYPE,EPOCH,MEAN_MOTION,ECCENTRICITY,INCLINATION,RA_OF_ASC_NODE,ARG_OF_PERICENTER,MEAN_ANOMALY,BSTAR,MEAN_MOTION_DOT,MEAN_MOTION_DDOT,TLE_LINE0,TLE_LINE1,TLE_LINE2,SEMIMAJOR_AXIS,PERIOD,APOGEE,PERIGEE,DECAYED
52341.0,STARLINK-3843,PAYLOAD,2024-02-07 15:49:40,15.08841561,0.0001639,53.2194,25.4678,88.9528,271.1652,7.4608e-05,9e-06,0.0,0 STARLINK-3843,1 52341U 22045L   24038.65949426  .00000900  00000-0  74608-4 0  9998,2 52341  53.2194  25.4678 0001639  88.9528 271.1652 15.08841561100758,6917.876,95.437,540.874,538.607,0.0
52341.0,STARLINK-3843,PAYLOAD,2024-02-08 06:08:09,15.08837334,0.0001829,53.2208,22.8,103.1549,256.9647,-8.3103e-05,-1.61e-05,0.0,0 STARLINK-3843,1 52341U 22045L   24039.25566496 -.00001610  00000-0 -83103-4 0  9998,2 52341  53.2208  22.8000 0001829 103.1549 256.9647 15.08837334100846,6917.889,95.438,541.019,538.488,0.0
52341.0,STARLINK-3843,PAYLOAD,2024-02-09 04:23:32,15.08843984,0.0001671,53.2191,18.6343,108.5309,251.5865,2.2366e-05,6.8e-07,0.0,0 STARLINK-3843,1 52341U 22045L   24040.18301966  .00000068  00000-0  22366-4 0  9999,2 52341  53.2191  18.6343 0001671 108.5309 251.5865 15.08843984100984,6917.868,95.437,540.889,538.577,0.0
52341.0,STARLINK-3843,PAYLOAD,2024-02-09 05:58:55,15.08846443,0.0001529,53.2186,18.3351,101.0922,259.0242,5.0026e-05,5.08e-06,0.0,0 STARLINK-3843,1 52341U 22045L   24040.24925775  .00000508  00000-0  50026-4 0  9999,2 52341  53.2186  18.3351 0001529 101.0922 259.0242 15.08846443100991,6917.861,95.437,540.783,538.668,0.0
52341.0,STARLINK-3843,PAYLOAD,2024-02-10 02:38:57,15.08833551,0.0001807,53.219,14.4677,70.5813,289.5375,0.0001281,1.751e-05,0.0,0 STARLINK-3843,1 52341U 22045L   24041.11038640  .00001751  00000-0  12810-3 0  9991,2 52341  53.2190  14.4677 0001807  70.5813 289.5375 15.08833551101129,6917.9,95.438,541.015,538.515,0.0
52341.0,STARLINK-3843,PAYLOAD,2024-02-10 07:25:06,15.08843254,0.0001875,53.2192,13.5752,66.8762,293.2428,7.2008e-05,8.58e-06,0.0,0 STARLINK-3843,1 52341U 22045L   24041.30910358  .00000858  00000-0  72008-4 0  9990,2 52341  53.2192  13.5752 0001875  66.8762 293.2428 15.08843254101156,6917.87,95.437,541.033,538.438,0.0
52341.0,STARLINK-3843,PAYLOAD,2024-02-10 21:43:34,15.08846033,0.0001589,53.2171,10.9008,84.907,275.2104,-2.836e-06,-3.33e-06,0.0,0 STARLINK-3843,1 52341U 22045L   24041.90526410 -.00000333  00000-0 -28360-5 0  9991,2 52341  53.2171  10.9008 0001589  84.9070 275.2104 15.08846033101242,6917.862,95.437,540.826,538.628,0.0
52341.0,STARLINK-3843,PAYLOAD,2024-02-11 07:15:52,15.08854772,0.0001545,53.2187,9.1112,97.9916,262.1252,0.00012569,1.714e-05,0.0,0 STARLINK-3843,1 52341U 22045L   24042.30269202  .00001714  00000-0  12569-3 0  9993,2 52341  53.2187   9.1112 0001545  97.9916 262.1252 15.08854772101305,6917.835,95.437,540.769,538.631,0.0
52341.0,STARLINK-3843,PAYLOAD,2024-02-12 03:55:54,15.08841885,0.0001757,53.2191,5.2489,107.9477,252.1707,5.8811e-05,6.48e-06,0.0,0 STARLINK-3843,1 52341U 22045L   24043.16381997  .00000648  00000-0  58811-4 0  9990,2 52341  53.2191   5.2489 0001757 107.9477 252.1707 15.08841885101432,6917.875,95.437,540.955,538.524,0.0
52341.0,STARLINK-3843,PAYLOAD,2024-02-12 07:06:39,15.08847402,0.000165,53.2194,4.6472,109.1661,250.951,8.0721e-05,9.97e-06,0.0,0 STARLINK-3843,1 52341U 22045L   24043.29629570  .00000997  00000-0  80721-4 0  9998,2 52341  53.2194   4.6472 0001650 109.1661 250.9510 15.08847402101452,6917.858,95.437,540.864,538.581,0.0
52341.0,STARLINK-3843,PAYLOAD,2024-02-13 03:46:41,15.08836092,0.0001247,53.2181,0.7885,108.3445,251.7683,-4.9604e-05,-1.077e-05,0.0,0 STARLINK-3843,1 52341U 22045L   24044.15742751 -.00001077  00000-0 -49604-4 0  9998,2 52341  53.2181   0.7885 0001247 108.3445 251.7683 15.08836092101583,6917.892,95.438,540.62,538.895,0.0
52341.0,STARLINK-3843,PAYLOAD,2024-02-13 06:57:27,15.08846085,0.000141,53.2188,0.1901,121.7238,238.3892,2.1145e-06,-2.54e-06,0.0,0 STARLINK-3843,1 52341U 22045L   24044.28990012 -.00000254  00000-0  21145-5 0  9993,2 52341  53.2188   0.1901 0001410 121.7238 238.3892 15.08846085101603,6917.862,95.437,540.702,538.751,0.0
52341.0,STARLINK-3843,PAYLOAD,2024-02-14 03:37:27,15.0885882,0.0001218,53.2188,356.328,97.9244,262.1886,4.8254e-05,4.81e-06,0.0,0 STARLINK-3843,1 52341U 22045L   24045.15101258  .00000481  00000-0  48254-4 0  9996,2 52341  53.2188 356.3280 0001218  97.9244 262.1886 15.08858820101738,6917.823,95.436,540.53,538.845,0.0
52341.0,STARLINK-3843,PAYLOAD,2024-02-14 13:09:47,15.08845624,0.0001339,53.2195,354.5439,94.924,265.1905,-5.2021e-05,-1.116e-05,0.0,0 STARLINK-3843,1 52341U 22045L   24045.54846149 -.00001116  00000-0 -52021-4 0  9999,2 52341  53.2195 354.5439 0001339  94.9240 265.1905 15.08845624101798,6917.863,95.437,540.655,538.802,0.0
52341.0,STARLINK-3843,PAYLOAD,2024-02-14 21:06:43,15.08838467,0.0001373,53.2198,353.0572,97.4155,262.6993,-1.1176e-05,-4.66e-06,0.0,0 STARLINK-3843,1 52341U 22045L   24045.87966938 -.00000466  00000-0 -11176-4 0  9997,2 52341  53.2198 353.0572 0001373  97.4155 262.6993 15.08838467101846,6917.885,95.438,540.7,538.8,0.0
52341.0,STARLINK-3843,PAYLOAD,2024-02-15 03:28:15,15.08841267,0.000158,53.2204,351.8737,127.2047,232.909,8.666e-05,1.092e-05,0.0,0 STARLINK-3843,1 52341U 22045L   24046.14462533  .00001092  00000-0  86660-4 0  9994,2 52341  53.2204 351.8737 0001580 127.2047 232.9090 15.08841267101889,6917.877,95.437,540.835,538.648,0.0
52341.0,STARLINK-3843,PAYLOAD,2024-02-15 20:57:31,15.08830298,0.0001181,53.2193,348.5971,105.3789,254.7333,-0.0001359,-2.449e-05,0.0,0 STARLINK-3843,1 52341U 22045L   24046.87328059 -.00002449  00000-0 -13590-3 0  9998,2 52341  53.2193 348.5971 0001181 105.3789 254.7333 15.08830298101992,6917.91,95.438,540.592,538.958,0.0
52341.0,STARLINK-3843,PAYLOAD,2024-02-16 03:19:03,15.08836258,0.0001493,53.22,347.4098,110.8713,249.2439,-7.0167e-05,-1.404e-05,0.0,0 STARLINK-3843,1 52341U 22045L   24047.13823614 -.00001404  00000-0 -70167-4 0  9999,2 52341  53.2200 347.4098 0001493 110.8713 249.2439 15.08836258102037,6917.892,95.438,540.79,538.724,0.0
52341.0,STARLINK-3843,PAYLOAD,2024-02-16 06:29:49,15.08842541,0.0001455,53.2204,346.8118,101.4684,258.6472,-1.4151e-05,-5.13e-06,0.0,0 STARLINK-3843,1 52341U 22045L   24047.27071101 -.00000513  00000-0 -14151-4 0  9991,2 52341  53.2204 346.8118 0001455 101.4684 258.6472 15.08842541102053,6917.873,95.437,540.744,538.731,0.0
52341.0,STARLINK-3843,PAYLOAD,2024-02-17 12:42:09,15.08842873,0.0001346,53.2191,341.1637,91.4532,268.6614,1.9556e-06,-2.57e-06,0.0,0 STARLINK-3843,1 52341U 22045L   24048.52927213 -.00000257  00000-0  19556-5 0  9993,2 52341  53.2191 341.1637 0001346  91.4532 268.6614 15.08842873102249,6917.872,95.437,540.668,538.805,0.0
52341.0,STARLINK-3843,PAYLOAD,2024-02-18 01:25:14,15.08838222,0.0001605,53.2205,338.7826,89.3231,270.7945,8.7128e-05,1.099e-05,0.0,0 STARLINK-3843,1 52341U 22045L   24049.05919670  .00001099  00000-0  87128-4 0  9993,2 52341  53.2205 338.7826 0001605  89.3231 270.7945 15.08838222102320,6917.886,95.438,540.861,538.641,0.0
52341.0,STARLINK-3843,PAYLOAD,2024-02-18 12:32:56,15.08839941,0.0001645,53.2196,336.7004,102.5677,257.55,6.566e-05,7.57e-06,0.0,0 STARLINK-3843,1 52341U 22045L   24049.52287536  .00000757  00000-0  65660-4 0  9991,2 52341  53.2196 336.7004 0001645 102.5677 257.5500 15.08839941102397,6917.881,95.438,540.884,538.608,0.0
52341.0,STARLINK-3843,PAYLOAD,2024-02-19 04:26:46,15.08861483,0.0001248,53.2195,333.7282,92.8514,267.2621,0.00010824,1.436e-05,0.0,0 STARLINK-3843,1 52341U 22045L   24050.18525910  .00001436  00000-0  10824-3 0  9992,2 52341  53.2195 333.7282 0001248  92.8514 267.2621 15.08861483102490,6917.815,95.436,540.543,538.816,0.0
52341.0,STARLINK-3843,PAYLOAD,2024-02-19 12:23:43,15.08840328,0.0001388,53.2202,332.2417,86.166,273.9491,-9.0064e-05,-1.721e-05,0.0,0 STARLINK-3843,1 52341U 22045L   24050.51647712 -.00001721  00000-0 -90064-4 0  9998,2 52341  53.2202 332.2417 0001388  86.1660 273.9491 15.08840328102546,6917.879,95.438,540.705,538.784,0.0
52341.0,STARLINK-3843,PAYLOAD,2024-02-20 01:06:46,15.08866767,0.0001242,53.2191,329.8622,82.426,277.6873,0.00017379,2.481e-05,0.0,0 STARLINK-3843,1 52341U 22045L   24051.04637431  .00002481  00000-0  17379-3 0  9993,2 52341  53.2191 329.8622 0001242  82.4260 277.6873 15.08866767102626,6917.799,95.436,540.523,538.804,0.0
52341.0,STARLINK-3843,PAYLOAD,2024-02-20 04:17:32,15.08870742,0.0001266,53.2188,329.267,91.0266,269.0871,0.00020359,2.956e-05,0.0,0 STARLINK-3843,1 52341U 22045L   24051.17884896  .00002956  00000-0  20359-3 0  9995,2 52341  53.2188 329.2670 0001266  91.0266 269.0871 15.08870742102640,6917.786,95.436,540.527,538.776,0.0
52341.0,STARLINK-3843,PAYLOAD,2024-02-20 23:22:12,15.08837022,0.0001495,53.2187,325.6996,97.0516,263.0646,-3.0648e-06,-3.37e-06,0.0,0 STARLINK-3843,1 52341U 22045L   24051.97375509 -.00000337  00000-0 -30648-5 0  9996,2 52341  53.2187 325.6996 0001495  97.0516 263.0646 15.08837022102769,6917.889,95.438,540.789,538.72,0.0
52341.0,STARLINK-3843,PAYLOAD,2024-02-21 04:08:21,15.08843272,0.000135,53.2186,324.8053,107.8773,252.2367,-5.9917e-05,-1.241e-05,0.0,0 STARLINK-3843,1 52341U 22045L   24052.17247111 -.00001241  00000-0 -59917-4 0  9990,2 52341  53.2186 324.8053 0001350 107.8773 252.2367 15.08843272102795,6917.87,95.437,540.669,538.801,0.0
52341.0,STARLINK-3843,PAYLOAD,2024-02-21 21:37:36,15.0883394,0.000155,53.219,321.5333,103.9336,256.1828,-5.9796e-05,-1.239e-05,0.0,0 STARLINK-3843,1 52341U 22045L   24052.90112038 -.00001239  00000-0 -59796-4 0  9992,2 52341  53.2190 321.5333 0001550 103.9336 256.1828 15.08833940102908,6917.899,95.438,540.836,538.692,0.0
52341.0,STARLINK-3843,PAYLOAD,2024-02-21 23:12:59,15.08834764,0.0001524,53.2188,321.236,102.5906,257.5257,-5.1664e-05,-1.11e-05,0.0,0 STARLINK-3843,1 52341U 22045L   24052.96735971 -.00001110  00000-0 -51664-4 0  9999,2 52341  53.2188 321.2360 0001524 102.5906 257.5257 15.08834764102918,6917.896,95.438,540.816,538.707,0.0
